[{"OBJECT_NAME":"STARLINK-32747","OBJECT_ID":"2025-008P","EPOCH":"2026-03-09T13:53:31.274880","MEAN_MOTION":15.27596418,"ECCENTRICITY":2.64e-5,"INCLINATION":42.9979,"RA_OF_ASC_NODE":278.88,"ARG_OF_PERICENTER":266.5964,"MEAN_ANOMALY":93.4858,"EPHEMERIS_TYPE":0,"CLASSIFICATION_TYPE":"U","NORAD_CAT_ID":62600,"ELEMENT_SET_NO":999,"REV_AT_EPOCH":6554,"BSTAR":0.00086309,"MEAN_MOTION_DOT":0.00023576,"MEAN_MOTION_DDOT":0},{"OBJECT_NAME":"COSMOS 249 DEB","OBJECT_ID":"1968-091CY","EPOCH":"2026-03-09T21:07:59.374848","MEAN_MOTION":14.52283222,"ECCENTRICITY":0.03386329,"INCLINATION":62.3952,"RA_OF_ASC_NODE":260.6441,"ARG_OF_PERICENTER":176.0549,"MEAN_ANOMALY":184.3323,"EPHEMERIS_TYPE":0,"CLASSIFICATION_TYPE":"U","NORAD_CAT_ID":15535,"ELEMENT_SET_NO":999,"REV_AT_EPOCH":94239,"BSTAR":0.0018935012,"MEAN_MOTION_DOT":0.00016406,"MEAN_MOTION_DDOT":0}]
